{
  "type": "FeatureCollection",
  "features": [
    {
      "type": "Feature",
      "properties": {
        "norad_id": 41877,
        "name": "RESOURCESAT-2A",
        "group": "resource",
        "lat": -25.369095822575428,
        "lon": -136.6342039501219,
        "alt_km": 825.6123148030883,
        "timestamp": "2025-12-03T15:48:02.759124+00:00",
        "meta_object_name": "RESOURCESAT-2A",
        "meta_object_id": "2016-074A",
        "meta_epoch": "2025-12-03T08:04:47.202816",
        "meta_mean_motion": 14.21592935,
        "meta_eccentricity": 0.0001171,
        "meta_inclination": 98.7768,
        "meta_ra_of_asc_node": 47.247,
        "meta_arg_of_pericenter": 302.1288,
        "meta_mean_anomaly": 57.9775,
        "meta_ephemeris_type": 0,
        "meta_classification_type": "U",
        "meta_norad_cat_id": 41877,
        "meta_element_set_no": 999,
        "meta_rev_at_epoch": 46647,
        "meta_bstar": 0.00013819944,
        "meta_mean_motion_dot": 2.59e-06,
        "meta_mean_motion_ddot": 0,
        "tle_line1": "1 41877U 16074A   25337.33665744  .00000259  00000+0  13820-3 0  9995",
        "tle_line2": "2 41877  98.7768  47.2470 0001171 302.1288  57.9775 14.21592935466470"
      },
      "geometry": {
        "type": "Point",
        "coordinates": [
          -136.6342039501219,
          -25.369095822575428
        ]
      }
    },
    {
      "type": "Feature",
      "properties": {
        "norad_id": 41948,
        "name": "CARTOSAT-2D",
        "group": "resource",
        "lat": -81.694509275731,
        "lon": 151.7607754396169,
        "alt_km": 514.0253570265095,
        "timestamp": "2025-12-03T15:48:02.759133+00:00",
        "meta_object_name": "CARTOSAT-2D",
        "meta_object_id": "2017-008A",
        "meta_epoch": "2025-12-03T08:18:34.823232",
        "meta_mean_motion": 15.19341765,
        "meta_eccentricity": 0.00049322,
        "meta_inclination": 97.4402,
        "meta_ra_of_asc_node": 34.9863,
        "meta_arg_of_pericenter": 197.5477,
        "meta_mean_anomaly": 162.5588,
        "meta_ephemeris_type": 0,
        "meta_classification_type": "U",
        "meta_norad_cat_id": 41948,
        "meta_element_set_no": 999,
        "meta_rev_at_epoch": 48784,
        "meta_bstar": 2.988038e-06,
        "meta_mean_motion_dot": -4e-08,
        "meta_mean_motion_ddot": 0,
        "tle_line1": "1 41948U 17008A   25337.34623638 -.00000004  00000+0  29880-5 0  9993",
        "tle_line2": "2 41948  97.4402  34.9863 0004932 197.5477 162.5588 15.19341765487843"
      },
      "geometry": {
        "type": "Point",
        "coordinates": [
          151.7607754396169,
          -81.694509275731
        ]
      }
    },
    {
      "type": "Feature",
      "properties": {
        "norad_id": 42063,
        "name": "SENTINEL-2B",
        "group": "resource",
        "lat": -52.63197620812589,
        "lon": -141.16085712754517,
        "alt_km": 796.5453245964791,
        "timestamp": "2025-12-03T15:48:02.759142+00:00",
        "meta_object_name": "SENTINEL-2B",
        "meta_object_id": "2017-013A",
        "meta_epoch": "2025-12-03T07:59:59.703360",
        "meta_mean_motion": 14.3080992,
        "meta_eccentricity": 0.00011189,
        "meta_inclination": 98.5727,
        "meta_ra_of_asc_node": 49.911,
        "meta_arg_of_pericenter": 98.3201,
        "meta_mean_anomaly": 261.8109,
        "meta_ephemeris_type": 0,
        "meta_classification_type": "U",
        "meta_norad_cat_id": 42063,
        "meta_element_set_no": 999,
        "meta_rev_at_epoch": 45663,
        "meta_bstar": 0.00011617956,
        "meta_mean_motion_dot": 2.61e-06,
        "meta_mean_motion_ddot": 0,
        "tle_line1": "1 42063U 17013A   25337.33332990  .00000261  00000+0  11618-3 0  9997",
        "tle_line2": "2 42063  98.5727  49.9110 0001118  98.3201 261.8109 14.30809920456630"
      },
      "geometry": {
        "type": "Point",
        "coordinates": [
          -141.16085712754517,
          -52.63197620812589
        ]
      }
    },
    {
      "type": "Feature",
      "properties": {
        "norad_id": 42767,
        "name": "CARTOSAT-2E",
        "group": "resource",
        "lat": 3.643484886581918,
        "lon": -144.15856907758962,
        "alt_km": 511.47301753264674,
        "timestamp": "2025-12-03T15:48:02.759151+00:00",
        "meta_object_name": "CARTOSAT-2E",
        "meta_object_id": "2017-036C",
        "meta_epoch": "2025-12-03T08:42:14.675040",
        "meta_mean_motion": 15.19167038,
        "meta_eccentricity": 0.00023086,
        "meta_inclination": 97.4578,
        "meta_ra_of_asc_node": 35.0716,
        "meta_arg_of_pericenter": 286.7329,
        "meta_mean_anomaly": 73.3652,
        "meta_ephemeris_type": 0,
        "meta_classification_type": "U",
        "meta_norad_cat_id": 42767,
        "meta_element_set_no": 999,
        "meta_rev_at_epoch": 46841,
        "meta_bstar": 0.00035977836,
        "meta_mean_motion_dot": 7.499e-05,
        "meta_mean_motion_ddot": 0,
        "tle_line1": "1 42767U 17036C   25337.36266985  .00007499  00000+0  35978-3 0  9991",
        "tle_line2": "2 42767  97.4578  35.0716 0002308 286.7329  73.3652 15.19167038468410"
      },
      "geometry": {
        "type": "Point",
        "coordinates": [
          -144.15856907758962,
          3.643484886581918
        ]
      }
    },
    {
      "type": "Feature",
      "properties": {
        "norad_id": 42920,
        "name": "FORMOSAT-5",
        "group": "resource",
        "lat": -62.31893479183937,
        "lon": 68.20549921412511,
        "alt_km": 723.1769275627339,
        "timestamp": "2025-12-03T15:48:02.759162+00:00",
        "meta_object_name": "FORMOSAT-5",
        "meta_object_id": "2017-049A",
        "meta_epoch": "2025-12-03T07:49:02.255520",
        "meta_mean_motion": 14.50995982,
        "meta_eccentricity": 0.00103237,
        "meta_inclination": 98.2463,
        "meta_ra_of_asc_node": 51.8311,
        "meta_arg_of_pericenter": 326.9681,
        "meta_mean_anomaly": 33.0868,
        "meta_ephemeris_type": 0,
        "meta_classification_type": "U",
        "meta_norad_cat_id": 42920,
        "meta_element_set_no": 999,
        "meta_rev_at_epoch": 43827,
        "meta_bstar": 0.00011202044,
        "meta_mean_motion_dot": 3.99e-06,
        "meta_mean_motion_ddot": 0,
        "tle_line1": "1 42920U 17049A   25337.32572055  .00000399  00000+0  11202-3 0  9996",
        "tle_line2": "2 42920  98.2463  51.8311 0010323 326.9681  33.0868 14.50995982438278"
      },
      "geometry": {
        "type": "Point",
        "coordinates": [
          68.20549921412511,
          -62.31893479183937
        ]
      }
    },
    {
      "type": "Feature",
      "properties": {
        "norad_id": 42969,
        "name": "SENTINEL-5P",
        "group": "resource",
        "lat": -76.95718827830416,
        "lon": -41.84666415078233,
        "alt_km": 834.96415588125,
        "timestamp": "2025-12-03T15:48:02.759171+00:00",
        "meta_object_name": "SENTINEL-5P",
        "meta_object_id": "2017-064A",
        "meta_epoch": "2025-12-03T07:43:13.177056",
        "meta_mean_motion": 14.19513578,
        "meta_eccentricity": 9.461e-05,
        "meta_inclination": 98.777,
        "meta_ra_of_asc_node": 275.99,
        "meta_arg_of_pericenter": 85.8373,
        "meta_mean_anomaly": 274.2911,
        "meta_ephemeris_type": 0,
        "meta_classification_type": "U",
        "meta_norad_cat_id": 42969,
        "meta_element_set_no": 999,
        "meta_rev_at_epoch": 42177,
        "meta_bstar": 8.3328865e-05,
        "meta_mean_motion_dot": 1.31e-06,
        "meta_mean_motion_ddot": 0,
        "tle_line1": "1 42969U 17064A   25337.32168029  .00000131  00000+0  83329-4 0  9992",
        "tle_line2": "2 42969  98.7770 275.9900 0000946  85.8373 274.2911 14.19513578421776"
      },
      "geometry": {
        "type": "Point",
        "coordinates": [
          -41.84666415078233,
          -76.95718827830416
        ]
      }
    },
    {
      "type": "Feature",
      "properties": {
        "norad_id": 42987,
        "name": "SKYSAT-C11",
        "group": "resource",
        "lat": -7.272244510960748,
        "lon": -66.0224247243657,
        "alt_km": 429.78618956515766,
        "timestamp": "2025-12-03T15:48:02.759180+00:00",
        "meta_object_name": "SKYSAT-C11",
        "meta_object_id": "2017-068A",
        "meta_epoch": "2025-12-03T08:47:01.690656",
        "meta_mean_motion": 15.46841256,
        "meta_eccentricity": 9.219e-05,
        "meta_inclination": 97.4135,
        "meta_ra_of_asc_node": 114.6304,
        "meta_arg_of_pericenter": 113.1127,
        "meta_mean_anomaly": 247.022,
        "meta_ephemeris_type": 0,
        "meta_classification_type": "U",
        "meta_norad_cat_id": 42987,
        "meta_element_set_no": 999,
        "meta_rev_at_epoch": 45286,
        "meta_bstar": 0.0005654664,
        "meta_mean_motion_dot": 0.00028363,
        "meta_mean_motion_ddot": 0,
        "tle_line1": "1 42987U 17068A   25337.36599179  .00028363  00000+0  56547-3 0  9992",
        "tle_line2": "2 42987  97.4135 114.6304 0000921 113.1127 247.0220 15.46841256452862"
      },
      "geometry": {
        "type": "Point",
        "coordinates": [
          -66.0224247243657,
          -7.272244510960748
        ]
      }
    }
  ]
}